{
  "type": "FeatureCollection",
  "features": [
    {
      "type": "Feature",
      "properties": {
        "norad_id": 35065,
        "name": "COSMOS 2251 DEB",
        "group": "cosmos-2251-debris",
        "lat": 10.63640291129709,
        "lon": -160.41166891390367,
        "alt_km": 731.7217043556202,
        "timestamp": "2025-12-11T13:55:02.562234+00:00",
        "meta_object_name": "COSMOS 2251 DEB",
        "meta_object_id": "1993-036AHU",
        "meta_epoch": "2025-12-08T21:05:49.871616",
        "meta_mean_motion": 14.4570853,
        "meta_eccentricity": 0.0019714,
        "meta_inclination": 74.0196,
        "meta_ra_of_asc_node": 201.5431,
        "meta_arg_of_pericenter": 327.1177,
        "meta_mean_anomaly": 32.8753,
        "meta_ephemeris_type": 0,
        "meta_classification_type": "U",
        "meta_norad_cat_id": 35065,
        "meta_element_set_no": 999,
        "meta_rev_at_epoch": 68295,
        "meta_bstar": 0.00050947,
        "meta_mean_motion_dot": 1.782e-05,
        "meta_mean_motion_ddot": 0,
        "tle_line1": "1 35065U 93036AHU 25342.87904944  .00001782  00000+0  50947-3 0  9996",
        "tle_line2": "2 35065  74.0196 201.5431 0019714 327.1177  32.8753 14.45708530682959"
      },
      "geometry": {
        "type": "Point",
        "coordinates": [
          -160.41166891390367,
          10.63640291129709
        ]
      }
    },
    {
      "type": "Feature",
      "properties": {
        "norad_id": 35071,
        "name": "COSMOS 2251 DEB",
        "group": "cosmos-2251-debris",
        "lat": -10.294288598080396,
        "lon": 172.8242417789343,
        "alt_km": 554.5731420599877,
        "timestamp": "2025-12-11T13:55:02.562244+00:00",
        "meta_object_name": "COSMOS 2251 DEB",
        "meta_object_id": "1993-036AJA",
        "meta_epoch": "2025-12-06T06:11:48.969024",
        "meta_mean_motion": 15.03269957,
        "meta_eccentricity": 0.00683754,
        "meta_inclination": 73.9314,
        "meta_ra_of_asc_node": 186.7627,
        "meta_arg_of_pericenter": 85.1943,
        "meta_mean_anomaly": 275.7048,
        "meta_ephemeris_type": 0,
        "meta_classification_type": "U",
        "meta_norad_cat_id": 35071,
        "meta_element_set_no": 999,
        "meta_rev_at_epoch": 67439,
        "meta_bstar": 0.0011992827,
        "meta_mean_motion_dot": 0.00017109,
        "meta_mean_motion_ddot": 0,
        "tle_line1": "1 35071U 93036AJA 25340.25820566  .00017109  00000+0  11993-2 0  9997",
        "tle_line2": "2 35071  73.9314 186.7627 0068375  85.1943 275.7048 15.03269957674390"
      },
      "geometry": {
        "type": "Point",
        "coordinates": [
          172.8242417789343,
          -10.294288598080396
        ]
      }
    },
    {
      "type": "Feature",
      "properties": {
        "norad_id": 35073,
        "name": "COSMOS 2251 DEB",
        "group": "cosmos-2251-debris",
        "lat": 65.16875598813483,
        "lon": 114.62292386576915,
        "alt_km": 552.564830183991,
        "timestamp": "2025-12-11T13:55:02.562254+00:00",
        "meta_object_name": "COSMOS 2251 DEB",
        "meta_object_id": "1993-036AJC",
        "meta_epoch": "2025-12-10T16:37:50.806560",
        "meta_mean_motion": 15.00404336,
        "meta_eccentricity": 0.00107016,
        "meta_inclination": 74.0016,
        "meta_ra_of_asc_node": 334.7492,
        "meta_arg_of_pericenter": 76.0723,
        "meta_mean_anomaly": 284.1653,
        "meta_ephemeris_type": 0,
        "meta_classification_type": "U",
        "meta_norad_cat_id": 35073,
        "meta_element_set_no": 999,
        "meta_rev_at_epoch": 67448,
        "meta_bstar": 0.0043502619,
        "meta_mean_motion_dot": 0.00055148,
        "meta_mean_motion_ddot": 0,
        "tle_line1": "1 35073U 93036AJC 25344.69294915  .00055148  00000+0  43503-2 0  9991",
        "tle_line2": "2 35073  74.0016 334.7492 0010701  76.0723 284.1653 15.00404336674488"
      },
      "geometry": {
        "type": "Point",
        "coordinates": [
          114.62292386576915,
          65.16875598813483
        ]
      }
    },
    {
      "type": "Feature",
      "properties": {
        "norad_id": 35284,
        "name": "COSMOS 2251 DEB",
        "group": "cosmos-2251-debris",
        "lat": 72.8486269713988,
        "lon": 18.631869815017765,
        "alt_km": 761.3862264201771,
        "timestamp": "2025-12-11T13:55:02.562265+00:00",
        "meta_object_name": "COSMOS 2251 DEB",
        "meta_object_id": "1993-036AJN",
        "meta_epoch": "2025-12-11T05:50:04.475040",
        "meta_mean_motion": 14.38315035,
        "meta_eccentricity": 0.00167481,
        "meta_inclination": 74.0492,
        "meta_ra_of_asc_node": 267.1786,
        "meta_arg_of_pericenter": 344.0345,
        "meta_mean_anomaly": 169.0006,
        "meta_ephemeris_type": 0,
        "meta_classification_type": "U",
        "meta_norad_cat_id": 35284,
        "meta_element_set_no": 999,
        "meta_rev_at_epoch": 65504,
        "meta_bstar": 0.00026377176,
        "meta_mean_motion_dot": 7.78e-06,
        "meta_mean_motion_ddot": 0,
        "tle_line1": "1 35284U 93036AJN 25345.24310735  .00000778  00000+0  26377-3 0  9996",
        "tle_line2": "2 35284  74.0492 267.1786 0016748 344.0345 169.0006 14.38315035655041"
      },
      "geometry": {
        "type": "Point",
        "coordinates": [
          18.631869815017765,
          72.8486269713988
        ]
      }
    },
    {
      "type": "Feature",
      "properties": {
        "norad_id": 35287,
        "name": "COSMOS 2251 DEB",
        "group": "cosmos-2251-debris",
        "lat": -71.3722690020014,
        "lon": -139.89161119837033,
        "alt_km": 778.6377928315069,
        "timestamp": "2025-12-11T13:55:02.562275+00:00",
        "meta_object_name": "COSMOS 2251 DEB",
        "meta_object_id": "1993-036AJR",
        "meta_epoch": "2025-12-11T02:39:47.072736",
        "meta_mean_motion": 14.36373983,
        "meta_eccentricity": 0.0017488,
        "meta_inclination": 74.0307,
        "meta_ra_of_asc_node": 279.1285,
        "meta_arg_of_pericenter": 16.278,
        "meta_mean_anomaly": 359.8107,
        "meta_ephemeris_type": 0,
        "meta_classification_type": "U",
        "meta_norad_cat_id": 35287,
        "meta_element_set_no": 999,
        "meta_rev_at_epoch": 86869,
        "meta_bstar": 0.00022612337,
        "meta_mean_motion_dot": 6.37e-06,
        "meta_mean_motion_ddot": 0,
        "tle_line1": "1 35287U 93036AJR 25345.11096149  .00000637  00000+0  22612-3 0  9997",
        "tle_line2": "2 35287  74.0307 279.1285 0017488  16.2780 359.8107 14.36373983868691"
      },
      "geometry": {
        "type": "Point",
        "coordinates": [
          -139.89161119837033,
          -71.3722690020014
        ]
      }
    },
    {
      "type": "Feature",
      "properties": {
        "norad_id": 35288,
        "name": "COSMOS 2251 DEB",
        "group": "cosmos-2251-debris",
        "lat": -47.957951665001175,
        "lon": -1.1976019396580142,
        "alt_km": 667.5063091087686,
        "timestamp": "2025-12-11T13:55:02.562285+00:00",
        "meta_object_name": "COSMOS 2251 DEB",
        "meta_object_id": "1993-036AJS",
        "meta_epoch": "2025-12-10T08:39:21.633984",
        "meta_mean_motion": 14.65413781,
        "meta_eccentricity": 0.00395397,
        "meta_inclination": 73.951,
        "meta_ra_of_asc_node": 19.7768,
        "meta_arg_of_pericenter": 253.6203,
        "meta_mean_anomaly": 106.0616,
        "meta_ephemeris_type": 0,
        "meta_classification_type": "U",
        "meta_norad_cat_id": 35288,
        "meta_element_set_no": 999,
        "meta_rev_at_epoch": 87843,
        "meta_bstar": 0.0015164998,
        "meta_mean_motion_dot": 8.275e-05,
        "meta_mean_motion_ddot": 0,
        "tle_line1": "1 35288U 93036AJS 25344.36066706  .00008275  00000+0  15165-2 0  9990",
        "tle_line2": "2 35288  73.9510  19.7768 0039539 253.6203 106.0616 14.65413781878431"
      },
      "geometry": {
        "type": "Point",
        "coordinates": [
          -1.1976019396580142,
          -47.957951665001175
        ]
      }
    },
    {
      "type": "Feature",
      "properties": {
        "norad_id": 35290,
        "name": "COSMOS 2251 DEB",
        "group": "cosmos-2251-debris",
        "lat": 13.391840166674255,
        "lon": -122.19193231477409,
        "alt_km": 627.6129735574386,
        "timestamp": "2025-12-11T13:55:02.562295+00:00",
        "meta_object_name": "COSMOS 2251 DEB",
        "meta_object_id": "1993-036AJU",
        "meta_epoch": "2025-12-10T22:34:20.883072",
        "meta_mean_motion": 14.80292012,
        "meta_eccentricity": 0.0002462,
        "meta_inclination": 74.0047,
        "meta_ra_of_asc_node": 62.9859,
        "meta_arg_of_pericenter": 199.7491,
        "meta_mean_anomaly": 160.3591,
        "meta_ephemeris_type": 0,
        "meta_classification_type": "U",
        "meta_norad_cat_id": 35290,
        "meta_element_set_no": 999,
        "meta_rev_at_epoch": 87931,
        "meta_bstar": 0.0030562,
        "meta_mean_motion_dot": 0.00023334,
        "meta_mean_motion_ddot": 0,
        "tle_line1": "1 35290U 93036AJU 25344.94051948  .00023334  00000+0  30562-2 0  9990",
        "tle_line2": "2 35290  74.0047  62.9859 0002462 199.7491 160.3591 14.80292012879318"
      },
      "geometry": {
        "type": "Point",
        "coordinates": [
          -122.19193231477409,
          13.391840166674255
        ]
      }
    }
  ]
}